#cP2022  3 31  6  0  0.00000000     576 d+D   IGb14 EXT AIUB
## 2203 367200.00000000   300.00000000 59669 0.2500000000000
+   76   G01G02G03G04G05G07G08G09G10G11G12G13G14G15G16G17G18
+        G19G20G21G22G23G24G25G26G27G28G29G30G31G32R01R02R03
+        R04R05R07R08R09R12R13R14R15R17R18R19R20R21R22R24E01
+        E02E03E04E05E07E08E09E10E11E12E13E14E15E18E19E21E24
+        E25E26E27E30E31E33E34E36  0  0  0  0  0  0  0  0  0
++         6  7  6  8  7  7  7  6  6  8  7  7  7  7  7  7  8
++         7  7  7  7  7  7  6  6  6  7  7  6  7  6  8  6  6
++         7  7  7  7  7  7  8  7  8  8  7  8  9  8  8  8  6
++         6  7  6  6  7  5  7  6  8  7  6  6  6  6  8  6  6
++         6  6  6  6  6  7  7  6  0  0  0  0  0  0  0  0  0
%c M  cc GPS ccc cccc cccc cccc cccc ccccc ccccc ccccc ccccc
%c cc cc ccc ccc cccc cccc cccc cccc ccccc ccccc ccccc ccccc
%f  1.2500000  1.025000000  0.00000000000  0.000000000000000
%f  0.0000000  0.000000000  0.00000000000  0.000000000000000
%i    0    0    0    0      0      0      0      0         0
%i    0    0    0    0      0      0      0      0         0
/* Center for Orbit Determination in Europe (CODE)          
/* Ultra-rapid GRE orbits starting year-day 22090 06 hour   
/* Observed/predicted: 25/23 hours (data used up to 091G)   
/* PCV:IGS14      OL/AL:FES2014b NONE     YN ORB:CoN CLK:BRD
*  2022  4  1 10 35  0.00000000
PG01 -21729.125831 -13226.668943   7956.999237    395.221123               P   P
PG02  11830.265079  20420.137468  12697.164774   -652.821647               P   P
PG03 -13808.387542  -6155.397467  21741.920593   -188.508942               P   P
PG04 -23447.852366  -2426.770569  12328.239937   -179.390408               P   P
PG05   6944.647162  20825.304749 -15004.002883    -76.731316               P   P
PG07 -18554.245263   1047.728511 -18766.293710    318.657848               P   P
PG08 -16450.281917  -8509.950857 -19201.801544    -62.141808               P   P
PG09 -25565.314119   6870.197735   2290.616458   -346.455532               P   P
PG10  11527.330362 -21619.829938  -9732.436020   -364.909388               P   P
PG11  10289.982323  21753.435547  11254.152241    -51.634065               P   P
PG12  11816.014519  10740.097226  20976.883185   -193.662847               P   P
PG13   7564.678348  13753.550123 -21599.019709    286.589911               P   P
PG14 -13100.380048  20561.503581 -10447.681569    -99.058996               P   P
PG15  17961.314117   7131.928347 -18757.795679    -72.338137               P   P
PG16  -1424.655739 -23386.175510 -12322.543621   -487.070408               P   P
PG17 -18542.941766  13902.231196  13452.912675    594.731248               P   P
PG18  18185.717581   -949.907793 -19375.848802    206.236429               P   P
PG19 -12335.214978  14794.221037  17939.464640    138.615213               P   P
PG20   2609.333127  25913.662701  -5806.743537    516.035343               P   P
PG21 -20406.150562 -17402.366198  -1666.496318    160.023948               P   P
PG22   8653.767499 -16029.745311  19674.472590    236.471680               P   P
PG23  15051.149002 -12285.040676 -18075.738827    -11.537831               P   P
PG24  22279.374707  14452.701826   3181.758695    262.035732               P   P
PG25  15775.149816  -4405.101629  20564.938925    306.130933               P   P
PG26   4310.006035 -26036.577258    -19.702397    195.304413               P   P
PG27  -4310.364555 -14414.133655 -22089.815140    171.590670               P   P
PG28  -9115.513010  25000.613380  -1461.540973    374.410061               P   P
PG29  26089.710983  -3629.355753   3603.371141   -498.068183               P   P
PG30 -12499.293786   9709.915288 -21270.542091   -521.665592               P   P
PG31   1488.516583 -17678.726117  19491.516899   -171.494697               P   P
PG32  15298.749788 -15878.491894  14807.585025    -96.314305               P   P
PR01   6163.014428   9393.719386 -22892.664475      7.494231               P   P
PR02  18493.127610  -6893.001838 -16075.150227    514.228065               P   P
PR03  18467.896788 -17553.887008    116.226312     54.160026               P   P
PR04   8315.090563 -18068.409353  15998.482068    134.593312               P   P
PR05  -6478.549622  -8727.313936  23092.026095     90.384511               P   P
PR07 -18324.743951  17764.334023   -705.616828     33.330602               P   P
PR08  -8190.635207  18122.509424 -15926.660506    -64.332493               P   P
PR09 -12263.560063  -3916.524612 -22019.687737     47.429121               P   P
PR12  10517.927071  20382.514168  11204.628187     17.697485               P   P
PR13  12133.955205   5266.144806  21790.799468    -20.237991               P   P
PR14   6415.793628 -14426.838523  20045.294703     76.015332               P   P
PR15  -2760.503298 -24519.168038   6485.076354     97.158513               P   P
PR17  15378.186872  -4724.543132 -19799.224569    514.066202               P   P
PR18  -1707.973482 -11242.254604 -22826.699627    112.154722               P   P
PR19 -16619.603664 -12547.205156 -14736.070918   -183.726595               P   P
PR20 -24320.077970  -5990.532980   4970.934131    -67.796507               P   P
PR21 -14072.063746   5340.699997  20587.281808   -289.864628               P   P
PR22   2438.499076  11371.825138  22673.161858   -174.181250               P   P
PR24  24389.754020   4963.226178  -5582.429480     87.050378               P   P
PE01 -14740.328035  17104.401710 -19149.024770   -607.917236               P   P
PE02  14681.993298 -17239.761380  19045.375641    290.000837               P   P
PE03  25128.960100 -15013.788143   4436.389184   -543.409182               P   P
PE04  -9639.883675  19795.759800 -19773.475730   -997.036842               P   P
PE05  26141.222309  -1298.948921 -13817.991218   -194.953668               P   P
PE07 -11931.430787 -12983.200049  23783.820781   -654.161975               P   P
PE08   9254.589499 -19711.712756  20059.399852   -504.895850               P   P
PE09  12134.092605  12674.110692 -23832.968664   -469.135171               P   P
PE10  11254.588684  21296.105549  17195.147958   -503.981924               P   P
PE11  19703.580887  20420.753051   8373.698464   4078.630107               P   P
PE12   1264.048581  18907.026909  22731.926007   4684.768127               P   P
PE13 -19320.220212 -20533.968446  -9033.588000    427.708440               P   P
PE14  25214.999646   2632.157791  10451.459180  -1798.567131               P   P
PE15  -1231.086395 -18798.573373 -22828.990719    754.324254               P   P
PE18 -18017.003349 -12632.192835 -19751.611845  -1616.234357               P   P
PE19 -26198.817143  13618.980570  -2104.520208  -2280.617094               P   P
PE21 -16359.450384  -3500.410917 -24424.560882   -725.893205               P   P
PE24   7906.895744  24264.761115  15000.209408   -536.976727               P   P
PE25  16312.966862   3823.887937  24401.502106   -568.836946               P   P
PE26 -25875.928253  -9478.917522  10817.836371   -979.359467               P   P
PE27  -8721.114555 -23333.450739 -15982.152684   -266.255598               P   P
PE30   4767.674183 -29071.324023   2770.282208   -395.255720               P   P
PE31  -3985.355575  29279.800687  -1793.588146   -494.392769               P   P
PE33 -17523.014555   5974.102711  23104.547222   -458.035429               P   P
PE34  17343.855120  -6185.653189 -23180.346259   -509.781909               P   P
PE36  25929.574655  10197.171259  -9966.677856   -353.457325               P   P
EOF
